STARLINK-2022           
1 47643U 21012Z   24235.73734707  .00000728  00000+0  67784-4 0  9996
2 47643  53.0538  63.2897 0001111 106.5301 253.5810 15.06399604194747
